STARLINK-37938          
1 69568U 26135Y   26195.91670139  .00069498  00000+0  12697-2 0  9992
2 69568  97.2836 224.3267 0001350  93.8794  27.7504 15.49156695  5760
STARLINK-37924          
1 69569U 26135Z   26195.91670139  .00064797  00000+0  11845-2 0  9994
2 69569  97.2838 224.4206 0001581 100.8419 242.8710 15.49158837  5765
SHIJIAN-31 (SJ-31)      
1 69570U 26136A   26195.54626587 -.00000447  00000+0  00000+0 0  9995
2 69570  63.4872 353.2619 6940037 171.8419 212.2940  1.92227240   614
CZ-3B R/B               
1 69571U 26136B   26194.21531152  .00411847  89933-7  60349-3 0  9997
2 69571  63.4303 350.8798 7256733 171.5015 216.3709  2.38066580   637
GUOWANG OBJECT A        
1 69572U 26137A   26193.89246529 -.00000143  00000+0  24502-5 0  9990
2 69572  49.9997 153.0717 0012495 311.3863  48.5960 13.89812741  3591
GUOWANG OBJECT B        
1 69573U 26137B   26190.65385973 -.00000214  00000+0 -55136-4 0  9995
2 69573  50.0016 165.9303 0011859 298.8434  61.1273 13.89803849  3155
GUOWANG OBJECT C        
1 69574U 26137C   26193.88847439 -.00000180  00000+0 -27480-4 0  9997
2 69574  49.9967 153.0345 0011896 311.4365  48.5511 13.89814739  3602
GUOWANG OBJECT D        
1 69575U 26137D   26190.65162700 -.00000168  00000+0 -17667-4 0  9993
2 69575  49.9953 165.9027 0011086 299.2996  60.6794 13.89827781  3150
GUOWANG OBJECT E        
1 69576U 26137E   26193.02348711 -.00000204  00000+0 -46563-4 0  9994
2 69576  50.0038 156.4799 0011224 310.0552  49.9361 13.89824941  3484
GUOWANG OBJECT F        
1 69577U 26137F   26192.30363530 -.00000204  00000+0 -46815-4 0  9991
2 69577  50.0028 159.3340 0010834 307.7048  52.2867 13.89809360  3382
GUOWANG OBJECT G        
1 69578U 26137G   26192.30278168 -.00000142  00000+0  35461-5 0  9990
2 69578  49.9952 159.3085 0010806 307.5258  52.4657 13.89795025  3383
GUOWANG OBJECT H        
1 69579U 26137H   26191.00768142 -.00000175  00000+0 -23862-4 0  9991
2 69579  50.0012 164.4679 0010249 306.3680  53.6272 13.89776278  3203
GUOWANG OBJECT J        
1 69580U 26137J   26178.27848690  .00000022  00000+0  13174-3 0  9997
2 69580  49.9961 215.0979 0011832 257.3150 102.6427 13.91997107  1436
CZ-12 R/B               
1 69581U 26137K   26194.27991700 -.00000112  00000+0  22245-4 0  9998
2 69581  49.9888 147.7098 0077441 203.1402 156.6010 14.11694334  3691
CENTISPACE-1 GROUP 05 O*
1 69582U 26138A   26194.34106729 -.00000052  00000+0  51929-4 0  9991
2 69582  55.1388 184.5993 0011308 340.3719  19.6818 14.15470945  3726
CENTISPACE-1 GROUP 05 O*
1 69583U 26138B   26194.47892911 -.00000145  00000+0  42988-5 0  9990
2 69583  55.1382 184.0587 0010295 341.1535  18.9057 14.15650579  3746
CENTISPACE-1 GROUP 05 O*
1 69584U 26138C   26194.47735153 -.00000196  00000+0 -21642-4 0  9995
2 69584  55.1387 184.0592 0010227 342.7982  17.2644 14.15734094  3745
CENTISPACE-1 GROUP 05 O*
1 69585U 26138D   26194.47408623 -.00000301  00000+0 -74602-4 0  9997
2 69585  55.1385 184.0335 0009819 342.0163  18.0463 14.15919525  3740
CENTISPACE-1 GROUP 05 O*
1 69586U 26138E   26194.68463529 -.00000301  00000+0 -74193-4 0  9992
2 69586  55.1377 183.2516 0009571 343.0370  17.0283 14.15986491  3778
CENTISPACE-1 GROUP 05 O*
1 69587U 26138F   26193.97992150 -.00000292  00000+0 -69905-4 0  9995
2 69587  55.1382 185.8680 0009436 345.5018  14.5684 14.15909909  3676
CENTISPACE-1 GROUP 05 O*
1 69588U 26138G   26193.41218649 -.00000375  00000+0 -11167-3 0  9997
2 69588  55.1383 187.9363 0008629 344.0005  16.0696 14.16073930  3590
SPACEMOBILE-008         
1 69589U 26139A   26195.55824432 -.00000080  00000+0  12477-4 0  9997
2 69589  52.9947 138.2992 0005050  54.8997 305.2467 15.12801501  4129
SPACEMOBILE-009         
1 69590U 26139B   26195.56016190 -.00000039  00000+0  14846-4 0  9990
2 69590  52.9938 138.3056 0005292  50.8296 309.3164 15.12694817  4128
SPACEMOBILE-010         
1 69591U 26139C   26195.56320446  .00000106  00000+0  23070-4 0  9996
2 69591  52.9945 138.3273 0005220  42.8328 317.3069 15.12526901  4138
KUIPER-00423            
1 69592U 26140A   26195.53300225  .00027441  00000+0  71466-3 0  9991
2 69592  51.8807 266.2606 0013806 267.7609  92.1798 15.38583270  5446
KUIPER-00428            
1 69593U 26140B   26195.50588904  .00006803  00000+0  19581-3 0  9990
2 69593  51.8794 266.8179 0007904  28.6160 331.5259 15.36939172  5436
KUIPER-00481            
1 69594U 26140C   26195.54397647  .00014491  00000+0  39047-3 0  9998
2 69594  51.8782 266.3247 0011140 277.9906  81.9817 15.38012446  5444
KUIPER-00490            
1 69595U 26140D   26195.55371760  .00011884  00000+0  32322-3 0  9990
2 69595  51.8777 266.3835 0006584 337.2982  22.7712 15.37951306  5445
KUIPER-00493            
1 69596U 26140E   26195.51107770 -.00006391  00000+0 -16518-3 0  9993
2 69596  51.8809 266.8514 0008156  36.1525 324.0012 15.36612574  5436
KUIPER-00496            
1 69597U 26140F   26195.53420384  .00011171  00000+0  34168-3 0  9996
2 69597  51.8787 266.9926 0010347  48.5793 311.6080 15.34298372  5430
